COSMOS 1743             
1 16719U 86034A   25303.22496807  .00037455  00000+0  68476-3 0  9993
2 16719  82.5379 209.6776 0009132  57.5518 302.6615 15.49157441159990
SL-14 R/B               
1 16792U 86046B   25303.19915504  .00000718  00000+0  80342-4 0  9992
2 16792  82.4845 203.4262 0021879 301.7157  58.1926 14.85419484107038
SL-14 R/B               
1 16882U 86055B   25303.12188490  .00000873  00000+0  98140-4 0  9998
2 16882  82.5199 249.3526 0020255  47.4765 323.2210 14.85456201 99983
AJISAI (EGS)            
1 16908U 86061A   25303.29236862 -.00000092  00000+0  37317-4 0  9992
2 16908  50.0063 134.3160 0011139 316.1100  92.7509 12.44514045451760
COSMOS 1812             
1 17295U 87003A   25303.16176492  .00078524  00000+0  72881-3 0  9995
2 17295  82.4914 338.8752 0003220 181.2278 178.8975 15.67168771123815
SL-14 R/B               
1 17567U 87024B   25303.27990919  .00000778  00000+0  86187-4 0  9991
2 17567  82.5305 215.2716 0017743 337.6288  22.4152 14.85957678 68767
COSMOS 1833             
1 17589U 87027A   25303.25198515 -.00000306  00000+0 -13807-3 0  9995
2 17589  70.9165 240.1921 0020508  33.5890 326.6526 14.13025763991889
SL-16 R/B               
1 17590U 87027B   25303.11012530 -.00000068  00000+0 -10053-4 0  9990
2 17590  71.0025 191.6519 0006797 305.5933  54.4557 14.17142018996887
SL-14 R/B               
1 17912U 87038B   25303.27521995  .00000859  00000+0  97284-4 0  9994
2 17912  82.5022  59.6283 0018153 233.0991 126.8562 14.85192187 59874
COSMOS 1844             
1 17973U 87041A   25303.28369053  .00000292  00000+0  17649-3 0  9998
2 17973  70.8976 309.2285 0032484 221.3176 138.5488 14.14508234985144
SL-14 R/B               
1 18153U 87055B   25303.20740406  .00000767  00000+0  85781-4 0  9991
2 18153  82.4962 112.0144 0022222  85.3563 275.0191 14.85449917 50567
COSMOS 1867             
1 18187U 87060A   25303.28803164  .00000015  00000+0  43460-4 0  9997
2 18187  65.0104 311.8848 0013773 266.8108  93.1400 14.31475084  1272
