CCSDS_OMM_VERS = 2.0
CREATION_DATE  = 
ORIGINATOR     = 

OBJECT_NAME    = COSMOS 1743
OBJECT_ID      = 1986-034A
CENTER_NAME    = EARTH
REF_FRAME      = TEME
TIME_SYSTEM    = UTC
MEAN_ELEMENT_THEORY = SGP/SGP4

EPOCH          = 2025-10-30T05:23:57.241248
MEAN_MOTION    = 15.49157441
ECCENTRICITY   = .00091321
INCLINATION    = 82.5379
RA_OF_ASC_NODE = 209.6776
ARG_OF_PERICENTER = 57.5518
MEAN_ANOMALY   = 302.6615

EPHEMERIS_TYPE = 0
CLASSIFICATION_TYPE = U
NORAD_CAT_ID   = 16719
ELEMENT_SET_NO = 999
REV_AT_EPOCH   = 15999
BSTAR          = .68475562E-3
MEAN_MOTION_DOT = .37455E-3
MEAN_MOTION_DDOT = 0

CCSDS_OMM_VERS = 2.0
CREATION_DATE  = 
ORIGINATOR     = 

OBJECT_NAME    = SL-14 R/B
OBJECT_ID      = 1986-046B
CENTER_NAME    = EARTH
REF_FRAME      = TEME
TIME_SYSTEM    = UTC
MEAN_ELEMENT_THEORY = SGP/SGP4

EPOCH          = 2025-10-30T04:46:46.995456
MEAN_MOTION    = 14.85419484
ECCENTRICITY   = .00218796
INCLINATION    = 82.4845
RA_OF_ASC_NODE = 203.4262
ARG_OF_PERICENTER = 301.7157
MEAN_ANOMALY   = 58.1926

EPHEMERIS_TYPE = 0
CLASSIFICATION_TYPE = U
NORAD_CAT_ID   = 16792
ELEMENT_SET_NO = 999
REV_AT_EPOCH   = 10703
BSTAR          = .80342429E-4
MEAN_MOTION_DOT = .718E-5
MEAN_MOTION_DDOT = 0

CCSDS_OMM_VERS = 2.0
CREATION_DATE  = 
ORIGINATOR     = 

OBJECT_NAME    = SL-14 R/B
OBJECT_ID      = 1986-055B
CENTER_NAME    = EARTH
REF_FRAME      = TEME
TIME_SYSTEM    = UTC
MEAN_ELEMENT_THEORY = SGP/SGP4

EPOCH          = 2025-10-30T02:55:30.855360
MEAN_MOTION    = 14.85456201
ECCENTRICITY   = .00202558
INCLINATION    = 82.5199
RA_OF_ASC_NODE = 249.3526
ARG_OF_PERICENTER = 47.4765
MEAN_ANOMALY   = 323.2210

EPHEMERIS_TYPE = 0
CLASSIFICATION_TYPE = U
NORAD_CAT_ID   = 16882
ELEMENT_SET_NO = 999
REV_AT_EPOCH   = 9998
BSTAR          = .98140226E-4
MEAN_MOTION_DOT = .873E-5
MEAN_MOTION_DDOT = 0

CCSDS_OMM_VERS = 2.0
CREATION_DATE  = 
ORIGINATOR     = 

OBJECT_NAME    = AJISAI (EGS)
OBJECT_ID      = 1986-061A
CENTER_NAME    = EARTH
REF_FRAME      = TEME
TIME_SYSTEM    = UTC
MEAN_ELEMENT_THEORY = SGP/SGP4

EPOCH          = 2025-10-30T07:01:00.648768
MEAN_MOTION    = 12.44514045
ECCENTRICITY   = .00111398
INCLINATION    = 50.0063
RA_OF_ASC_NODE = 134.3160
ARG_OF_PERICENTER = 316.1100
MEAN_ANOMALY   = 92.7509

EPHEMERIS_TYPE = 0
CLASSIFICATION_TYPE = U
NORAD_CAT_ID   = 16908
ELEMENT_SET_NO = 999
REV_AT_EPOCH   = 45176
BSTAR          = .37316727E-4
MEAN_MOTION_DOT = -.92E-6
MEAN_MOTION_DDOT = 0

CCSDS_OMM_VERS = 2.0
CREATION_DATE  = 
ORIGINATOR     = 

OBJECT_NAME    = COSMOS 1812
OBJECT_ID      = 1987-003A
CENTER_NAME    = EARTH
REF_FRAME      = TEME
TIME_SYSTEM    = UTC
MEAN_ELEMENT_THEORY = SGP/SGP4

EPOCH          = 2025-10-30T03:52:56.489088
MEAN_MOTION    = 15.67168771
ECCENTRICITY   = .00032205
INCLINATION    = 82.4914
RA_OF_ASC_NODE = 338.8752
ARG_OF_PERICENTER = 181.2278
MEAN_ANOMALY   = 178.8975

EPHEMERIS_TYPE = 0
CLASSIFICATION_TYPE = U
NORAD_CAT_ID   = 17295
ELEMENT_SET_NO = 999
REV_AT_EPOCH   = 12381
BSTAR          = .72880976E-3
MEAN_MOTION_DOT = .78524E-3
MEAN_MOTION_DDOT = 0

CCSDS_OMM_VERS = 2.0
CREATION_DATE  = 
ORIGINATOR     = 

OBJECT_NAME    = SL-14 R/B
OBJECT_ID      = 1987-024B
CENTER_NAME    = EARTH
REF_FRAME      = TEME
TIME_SYSTEM    = UTC
MEAN_ELEMENT_THEORY = SGP/SGP4

EPOCH          = 2025-10-30T06:43:04.154016
MEAN_MOTION    = 14.85957678
ECCENTRICITY   = .00177433
INCLINATION    = 82.5305
RA_OF_ASC_NODE = 215.2716
ARG_OF_PERICENTER = 337.6288
MEAN_ANOMALY   = 22.4152

EPHEMERIS_TYPE = 0
CLASSIFICATION_TYPE = U
NORAD_CAT_ID   = 17567
ELEMENT_SET_NO = 999
REV_AT_EPOCH   = 6876
BSTAR          = .86186764E-4
MEAN_MOTION_DOT = .778E-5
MEAN_MOTION_DDOT = 0

CCSDS_OMM_VERS = 2.0
CREATION_DATE  = 
ORIGINATOR     = 

OBJECT_NAME    = COSMOS 1833
OBJECT_ID      = 1987-027A
CENTER_NAME    = EARTH
REF_FRAME      = TEME
TIME_SYSTEM    = UTC
MEAN_ELEMENT_THEORY = SGP/SGP4

EPOCH          = 2025-10-30T06:02:51.516960
MEAN_MOTION    = 14.13025763
ECCENTRICITY   = .00205089
INCLINATION    = 70.9165
RA_OF_ASC_NODE = 240.1921
ARG_OF_PERICENTER = 33.5890
MEAN_ANOMALY   = 326.6526

EPHEMERIS_TYPE = 0
CLASSIFICATION_TYPE = U
NORAD_CAT_ID   = 17589
ELEMENT_SET_NO = 999
REV_AT_EPOCH   = 99188
BSTAR          = -.13806973E-3
MEAN_MOTION_DOT = -.306E-5
MEAN_MOTION_DDOT = 0

CCSDS_OMM_VERS = 2.0
CREATION_DATE  = 
ORIGINATOR     = 

OBJECT_NAME    = SL-16 R/B
OBJECT_ID      = 1987-027B
CENTER_NAME    = EARTH
REF_FRAME      = TEME
TIME_SYSTEM    = UTC
MEAN_ELEMENT_THEORY = SGP/SGP4

EPOCH          = 2025-10-30T02:38:34.825920
MEAN_MOTION    = 14.17142018
ECCENTRICITY   = .00067978
INCLINATION    = 71.0025
RA_OF_ASC_NODE = 191.6519
ARG_OF_PERICENTER = 305.5933
MEAN_ANOMALY   = 54.4557

EPHEMERIS_TYPE = 0
CLASSIFICATION_TYPE = U
NORAD_CAT_ID   = 17590
ELEMENT_SET_NO = 999
REV_AT_EPOCH   = 99688
BSTAR          = -.10053082E-4
MEAN_MOTION_DOT = -.68E-6
MEAN_MOTION_DDOT = 0

CCSDS_OMM_VERS = 2.0
CREATION_DATE  = 
ORIGINATOR     = 

OBJECT_NAME    = SL-14 R/B
OBJECT_ID      = 1987-038B
CENTER_NAME    = EARTH
REF_FRAME      = TEME
TIME_SYSTEM    = UTC
MEAN_ELEMENT_THEORY = SGP/SGP4

EPOCH          = 2025-10-30T06:36:19.003680
MEAN_MOTION    = 14.85192187
ECCENTRICITY   = .0018153
INCLINATION    = 82.5022
RA_OF_ASC_NODE = 59.6283
ARG_OF_PERICENTER = 233.0991
MEAN_ANOMALY   = 126.8562

EPHEMERIS_TYPE = 0
CLASSIFICATION_TYPE = U
NORAD_CAT_ID   = 17912
ELEMENT_SET_NO = 999
REV_AT_EPOCH   = 5987
BSTAR          = .97283571E-4
MEAN_MOTION_DOT = .859E-5
MEAN_MOTION_DDOT = 0

CCSDS_OMM_VERS = 2.0
CREATION_DATE  = 
ORIGINATOR     = 

OBJECT_NAME    = COSMOS 1844
OBJECT_ID      = 1987-041A
CENTER_NAME    = EARTH
REF_FRAME      = TEME
TIME_SYSTEM    = UTC
MEAN_ELEMENT_THEORY = SGP/SGP4

EPOCH          = 2025-10-30T06:48:30.861792
MEAN_MOTION    = 14.14508234
ECCENTRICITY   = .0032484
INCLINATION    = 70.8976
RA_OF_ASC_NODE = 309.2285
ARG_OF_PERICENTER = 221.3176
MEAN_ANOMALY   = 138.5488

EPHEMERIS_TYPE = 0
CLASSIFICATION_TYPE = U
NORAD_CAT_ID   = 17973
ELEMENT_SET_NO = 999
REV_AT_EPOCH   = 98514
BSTAR          = .17649189E-3
MEAN_MOTION_DOT = .292E-5
MEAN_MOTION_DDOT = 0

CCSDS_OMM_VERS = 2.0
CREATION_DATE  = 
ORIGINATOR     = 

OBJECT_NAME    = SL-14 R/B
OBJECT_ID      = 1987-055B
CENTER_NAME    = EARTH
REF_FRAME      = TEME
TIME_SYSTEM    = UTC
MEAN_ELEMENT_THEORY = SGP/SGP4

EPOCH          = 2025-10-30T04:58:39.710784
MEAN_MOTION    = 14.85449917
ECCENTRICITY   = .00222227
INCLINATION    = 82.4962
RA_OF_ASC_NODE = 112.0144
ARG_OF_PERICENTER = 85.3563
MEAN_ANOMALY   = 275.0191

EPHEMERIS_TYPE = 0
CLASSIFICATION_TYPE = U
NORAD_CAT_ID   = 18153
ELEMENT_SET_NO = 999
REV_AT_EPOCH   = 5056
BSTAR          = .85781386E-4
MEAN_MOTION_DOT = .767E-5
MEAN_MOTION_DDOT = 0

CCSDS_OMM_VERS = 2.0
CREATION_DATE  = 
ORIGINATOR     = 

OBJECT_NAME    = COSMOS 1867
OBJECT_ID      = 1987-060A
CENTER_NAME    = EARTH
REF_FRAME      = TEME
TIME_SYSTEM    = UTC
MEAN_ELEMENT_THEORY = SGP/SGP4

EPOCH          = 2025-10-30T06:54:45.933696
MEAN_MOTION    = 14.31475084
ECCENTRICITY   = .00137733
INCLINATION    = 65.0104
RA_OF_ASC_NODE = 311.8848
ARG_OF_PERICENTER = 266.8108
MEAN_ANOMALY   = 93.1400

EPHEMERIS_TYPE = 0
CLASSIFICATION_TYPE = U
NORAD_CAT_ID   = 18187
ELEMENT_SET_NO = 999
REV_AT_EPOCH   = 127
BSTAR          = .43459933E-4
MEAN_MOTION_DOT = .15E-6
MEAN_MOTION_DDOT = 0

